{"type": "FeatureCollection", "features": [ {"type": "Feature", "properties": {"norad_id": 31555, "name": "FENGYUN 1C DEB", "group": "fengyun-1c-debris", "lat": 51.163460236103376, "lon": -80.62477024555636, "alt_km": 849.5023724778375, "timestamp": "2025-12-03T08:58:46.284885+00:00", "meta": {"OBJECT_NAME": "FENGYUN 1C DEB", "OBJECT_ID": "1999-025BYW", "EPOCH": "2025-12-01T03:31:04.241568", "MEAN_MOTION": 14.440428, "ECCENTRICITY": 0.01547303, "INCLINATION": 99.1019, "RA_OF_ASC_NODE": 288.4787, "ARG_OF_PERICENTER": 231.041, "MEAN_ANOMALY": 127.6906, "EPHEMERIS_TYPE": 0, "CLASSIFICATION_TYPE": "U", "NORAD_CAT_ID": 31555, "ELEMENT_SET_NO": 999, "REV_AT_EPOCH": 96396, "BSTAR": 0.0015674525, "MEAN_MOTION_DOT": 6.152e-05, "MEAN_MOTION_DDOT": 0}, "tle": {"line1": "1 31555U 99025BYW 25335.14657687  .00006152  00000+0  15675-2 0  9995", "line2": "2 31555  99.1019 288.4787 0154730 231.0410 127.6906 14.44042800963966"}}, "geometry": {"type": "Point", "coordinates": [-80.62477024555636, 51.163460236103376]}}, {"type": "Feature", "properties": {"norad_id": 31558, "name": "FENGYUN 1C DEB", "group": "fengyun-1c-debris", "lat": 21.383255109321965, "lon": 55.99723124289029, "alt_km": 861.7922810405435, "timestamp": "2025-12-03T08:58:46.284898+00:00", "meta": {"OBJECT_NAME": "FENGYUN 1C DEB", "OBJECT_ID": "1999-025BYZ", "EPOCH": "2025-12-02T04:34:35.989248", "MEAN_MOTION": 14.38654909, "ECCENTRICITY": 0.02111607, "INCLINATION": 98.7911, "RA_OF_ASC_NODE": 231.3106, "ARG_OF_PERICENTER": 293.7151, "MEAN_ANOMALY": 220.5609, "EPHEMERIS_TYPE": 0, "CLASSIFICATION_TYPE": "U", "NORAD_CAT_ID": 31558, "ELEMENT_SET_NO": 999, "REV_AT_EPOCH": 97283, "BSTAR": 0.00041471229, "MEAN_MOTION_DOT": 1.591e-05, "MEAN_MOTION_DDOT": 0}, "tle": {"line1": "1 31558U 99025BYZ 25336.19069432  .00001591  00000+0  41471-3 0  9995", "line2": "2 31558  98.7911 231.3106 0211160 293.7151 220.5609 14.38654909972836"}}, "geometry": {"type": "Point", "coordinates": [55.99723124289029, 21.383255109321965]}}, {"type": "Feature", "properties": {"norad_id": 31559, "name": "FENGYUN 1C DEB", "group": "fengyun-1c-debris", "lat": -81.09786124417641, "lon": 15.989099810275633, "alt_km": 663.7920413560141, "timestamp": "2025-12-03T08:58:46.284909+00:00", "meta": {"OBJECT_NAME": "FENGYUN 1C DEB", "OBJECT_ID": "1999-025BZA", "EPOCH": "2025-12-02T16:08:38.535936", "MEAN_MOTION": 14.63305685, "ECCENTRICITY": 0.0054066, "INCLINATION": 98.8657, "RA_OF_ASC_NODE": 290.03, "ARG_OF_PERICENTER": 225.6029, "MEAN_ANOMALY": 311.5045, "EPHEMERIS_TYPE": 0, "CLASSIFICATION_TYPE": "U", "NORAD_CAT_ID": 31559, "ELEMENT_SET_NO": 999, "REV_AT_EPOCH": 97409, "BSTAR": 0.0020844, "MEAN_MOTION_DOT": 0.00010944, "MEAN_MOTION_DDOT": 0}, "tle": {"line1": "1 31559U 99025BZA 25336.67266824  .00010944  00000+0  20844-2 0  9995", "line2": "2 31559  98.8657 290.0300 0054066 225.6029 311.5045 14.63305685974098"}}, "geometry": {"type": "Point", "coordinates": [15.989099810275633, -81.09786124417641]}}, {"type": "Feature", "properties": {"norad_id": 31560, "name": "FENGYUN 1C DEB", "group": "fengyun-1c-debris", "lat": -21.19768027660412, "lon": -169.61915712133728, "alt_km": 886.6050530106395, "timestamp": "2025-12-03T08:58:46.284919+00:00", "meta": {"OBJECT_NAME": "FENGYUN 1C DEB", "OBJECT_ID": "1999-025BZB", "EPOCH": "2025-12-02T21:53:24.174240", "MEAN_MOTION": 14.21217416, "ECCENTRICITY": 0.0120374, "INCLINATION": 98.5902, "RA_OF_ASC_NODE": 13.2921, "ARG_OF_PERICENTER": 337.1039, "MEAN_ANOMALY": 22.4798, "EPHEMERIS_TYPE": 0, "CLASSIFICATION_TYPE": "U", "NORAD_CAT_ID": 31560, "ELEMENT_SET_NO": 999, "REV_AT_EPOCH": 96479, "BSTAR": 8.2444e-05, "MEAN_MOTION_DOT": 1.5e-06, "MEAN_MOTION_DDOT": 0}, "tle": {"line1": "1 31560U 99025BZB 25336.91208535  .00000150  00000+0  82444-4 0  9993", "line2": "2 31560  98.5902  13.2921 0120374 337.1039  22.4798 14.21217416964797"}}, "geometry": {"type": "Point", "coordinates": [-169.61915712133728, -21.19768027660412]}}, {"type": "Feature", "properties": {"norad_id": 31561, "name": "FENGYUN 1C DEB", "group": "fengyun-1c-debris", "lat": 67.93973026888999, "lon": 176.05948890156375, "alt_km": 883.8768547643103, "timestamp": "2025-12-03T08:58:46.284931+00:00", "meta": {"OBJECT_NAME": "FENGYUN 1C DEB", "OBJECT_ID": "1999-025BZC", "EPOCH": "2025-12-01T17:55:39.554976", "MEAN_MOTION": 14.0274109, "ECCENTRICITY": 0.00562963, "INCLINATION": 98.7157, "RA_OF_ASC_NODE": 332.2597, "ARG_OF_PERICENTER": 213.9165, "MEAN_ANOMALY": 324.622, "EPHEMERIS_TYPE": 0, "CLASSIFICATION_TYPE": "U", "NORAD_CAT_ID": 31561, "ELEMENT_SET_NO": 999, "REV_AT_EPOCH": 95024, "BSTAR": 0.00068562122, "MEAN_MOTION_DOT": 1.032e-05, "MEAN_MOTION_DDOT": 0}, "tle": {"line1": "1 31561U 99025BZC 25335.74698559  .00001032  00000+0  68562-3 0  9997", "line2": "2 31561  98.7157 332.2597 0056296 213.9165 324.6220 14.02741090950248"}}, "geometry": {"type": "Point", "coordinates": [176.05948890156375, 67.93973026888999]}}, {"type": "Feature", "properties": {"norad_id": 31562, "name": "FENGYUN 1C DEB", "group": "fengyun-1c-debris", "lat": 69.21352602059096, "lon": 102.68274473937856, "alt_km": 765.7241538586231, "timestamp": "2025-12-03T08:58:46.284945+00:00", "meta": {"OBJECT_NAME": "FENGYUN 1C DEB", "OBJECT_ID": "1999-025BZD", "EPOCH": "2025-11-30T09:02:26.155968", "MEAN_MOTION": 14.41943964, "ECCENTRICITY": 0.00571865, "INCLINATION": 99.2576, "RA_OF_ASC_NODE": 124.8818, "ARG_OF_PERICENTER": 319.7345, "MEAN_ANOMALY": 39.9613, "EPHEMERIS_TYPE": 0, "CLASSIFICATION_TYPE": "U", "NORAD_CAT_ID": 31562, "ELEMENT_SET_NO": 999, "REV_AT_EPOCH": 96812, "BSTAR": 0.00090169578, "MEAN_MOTION_DOT": 2.962e-05, "MEAN_MOTION_DDOT": 0}, "tle": {"line1": "1 31562U 99025BZD 25334.37669162  .00002962  00000+0  90170-3 0  9997", "line2": "2 31562  99.2576 124.8818 0057186 319.7345  39.9613 14.41943964968120"}}, "geometry": {"type": "Point", "coordinates": [102.68274473937856, 69.21352602059096]}}, {"type": "Feature", "properties": {"norad_id": 31563, "name": "FENGYUN 1C DEB", "group": "fengyun-1c-debris", "lat": 39.93004294603115, "lon": 122.45372690898463, "alt_km": 641.197897925962, "timestamp": "2025-12-03T08:58:46.284959+00:00", "meta": {"OBJECT_NAME": "FENGYUN 1C DEB", "OBJECT_ID": "1999-025BZE", "EPOCH": "2025-12-01T09:15:52.692192", "MEAN_MOTION": 14.65165233, "ECCENTRICITY": 0.01140629, "INCLINATION": 98.9502, "RA_OF_ASC_NODE": 127.8711, "ARG_OF_PERICENTER": 113.7658, "MEAN_ANOMALY": 247.5554, "EPHEMERIS_TYPE": 0, "CLASSIFICATION_TYPE": "U", "NORAD_CAT_ID": 31563, "ELEMENT_SET_NO": 999, "REV_AT_EPOCH": 98378, "BSTAR": 0.00091407218, "MEAN_MOTION_DOT": 5.352e-05, "MEAN_MOTION_DDOT": 0}, "tle": {"line1": "1 31563U 99025BZE 25335.38602653  .00005352  00000+0  91407-3 0  9992", "line2": "2 31563  98.9502 127.8711 0114062 113.7658 247.5554 14.65165233983788"}}, "geometry": {"type": "Point", "coordinates": [122.45372690898463, 39.93004294603115]}}, {"type": "Feature", "properties": {"norad_id": 31565, "name": "FENGYUN 1C DEB", "group": "fengyun-1c-debris", "lat": 24.840905895694096, "lon": 32.2151213246255, "alt_km": 773.8094354161149, "timestamp": "2025-12-03T08:58:46.284969+00:00", "meta": {"OBJECT_NAME": "FENGYUN 1C DEB", "OBJECT_ID": "1999-025BZG", "EPOCH": "2025-11-29T09:07:25.735008", "MEAN_MOTION": 14.38541647, "ECCENTRICITY": 0.00553237, "INCLINATION": 100.7173, "RA_OF_ASC_NODE": 202.2097, "ARG_OF_PERICENTER": 58.3475, "MEAN_ANOMALY": 302.3085, "EPHEMERIS_TYPE": 0, "CLASSIFICATION_TYPE": "U", "NORAD_CAT_ID": 31565, "ELEMENT_SET_NO": 999, "REV_AT_EPOCH": 64161, "BSTAR": 0.0030186467, "MEAN_MOTION_DOT": 9.348e-05, "MEAN_MOTION_DDOT": 0}, "tle": {"line1": "1 31565U 99025BZG 25333.38015897  .00009348  00000+0  30186-2 0  9995", "line2": "2 31565 100.7173 202.2097 0055323  58.3475 302.3085 14.38541647641615"}}, "geometry": {"type": "Point", "coordinates": [32.2151213246255, 24.840905895694096]}}, {"type": "Feature", "properties": {"norad_id": 31566, "name": "FENGYUN 1C DEB", "group": "fengyun-1c-debris", "lat": -73.75644874593532, "lon": -176.83273184184392, "alt_km": 785.6487558799718, "timestamp": "2025-12-03T08:58:46.284979+00:00", "meta": {"OBJECT_NAME": "FENGYUN 1C DEB", "OBJECT_ID": "1999-025BZH", "EPOCH": "2025-12-01T02:36:25.020288", "MEAN_MOTION": 14.37174126, "ECCENTRICITY": 0.00233316, "INCLINATION": 98.9506, "RA_OF_ASC_NODE": 33.559, "ARG_OF_PERICENTER": 32.6722, "MEAN_ANOMALY": 29.0122, "EPHEMERIS_TYPE": 0, "CLASSIFICATION_TYPE": "U", "NORAD_CAT_ID": 31566, "ELEMENT_SET_NO": 999, "REV_AT_EPOCH": 96224, "BSTAR": 0.0021549401, "MEAN_MOTION_DOT": 6.388e-05, "MEAN_MOTION_DDOT": 0}, "tle": {"line1": "1 31566U 99025BZH 25335.10862292  .00006388  00000+0  21549-2 0  9991", "line2": "2 31566  98.9506  33.5590 0023331  32.6722  29.0122 14.37174126962244"}}, "geometry": {"type": "Point", "coordinates": [-176.83273184184392, -73.75644874593532]}}, {"type": "Feature", "properties": {"norad_id": 31567, "name": "FENGYUN 1C DEB", "group": "fengyun-1c-debris", "lat": -55.15323699672672, "lon": 2.7182760359717513, "alt_km": 932.4076536915836, "timestamp": "2025-12-03T08:58:46.284993+00:00", "meta": {"OBJECT_NAME": "FENGYUN 1C DEB", "OBJECT_ID": "1999-025BZJ", "EPOCH": "2025-12-01T02:23:03.770880", "MEAN_MOTION": 13.92716645, "ECCENTRICITY": 0.0187511, "INCLINATION": 102.3183, "RA_OF_ASC_NODE": 197.9924, "ARG_OF_PERICENTER": 336.345, "MEAN_ANOMALY": 22.916, "EPHEMERIS_TYPE": 0, "CLASSIFICATION_TYPE": "U", "NORAD_CAT_ID": 31567, "ELEMENT_SET_NO": 999, "REV_AT_EPOCH": 67247, "BSTAR": 0.0035029529, "MEAN_MOTION_DOT": 5.166e-05, "MEAN_MOTION_DDOT": 0}, "tle": {"line1": "1 31567U 99025BZJ 25335.09934920  .00005166  00000+0  35030-2 0  9991", "line2": "2 31567 102.3183 197.9924 0187511 336.3450  22.9160 13.92716645672470"}}, "geometry": {"type": "Point", "coordinates": [2.7182760359717513, -55.15323699672672]}}]}